[Satellite]
VERSION=1.1
NAME=HELLAS-SAT 2
NICKNAME=HELLAS-SAT 2
TLE1=1 27811U 03020A   17186.18623060  .00000148  00000-0  00000-0 0  9996
TLE2=2 27811   0.0080 147.9842 0003574 331.8510 269.5451  1.00270286 10070
